NORAD_CAT_ID,OBJECT_NAME,OBJECT_TYPE,EPOCH,MEAN_MOTION,ECCENTRICITY,INCLINATION,RA_OF_ASC_NODE,ARG_OF_PERICENTER,MEAN_ANOMALY,BSTAR,MEAN_MOTION_DOT,MEAN_MOTION_DDOT,TLE_LINE0,TLE_LINE1,TLE_LINE2,SEMIMAJOR_AXIS,PERIOD,APOGEE,PERIGEE,DECAYED
52465.0,STARLINK-3863,PAYLOAD,2023-07-27 05:24:46,15.08850969,0.0004273,53.218,22.8605,47.3508,312.7844,-0.00013764,-2.48e-05,0.0,0 STARLINK-3863,1 52465U 22049Q   23208.22553285 -.00002480  00000-0 -13764-3 0  9996,2 52465  53.2180  22.8605 0004273  47.3508 312.7844 15.08850969 68159,6917.847,95.437,542.668,536.756,0.0
52465.0,STARLINK-3863,PAYLOAD,2023-07-27 11:46:19,15.08827175,0.000123,53.2184,21.6645,88.9564,271.1569,3.1471e-05,2.13e-06,0.0,0 STARLINK-3863,1 52465U 22049Q   23208.49050058  .00000213  00000-0  31471-4 0  9991,2 52465  53.2184  21.6645 0001230  88.9564 271.1569 15.08827175 68039,6917.92,95.438,540.635,538.934,0.0
52465.0,STARLINK-3863,PAYLOAD,2023-07-27 14:57:05,15.08830402,0.000112,53.219,21.0702,87.3106,272.8014,-3.6504e-05,-8.69e-06,0.0,0 STARLINK-3863,1 52465U 22049Q   23208.62297941 -.00000869  00000-0 -36504-4 0  9991,2 52465  53.2190  21.0702 0001120  87.3106 272.8014 15.08830402 68217,6917.91,95.438,540.55,539.0,0.0
52465.0,STARLINK-3863,PAYLOAD,2023-07-27 21:18:37,15.08832614,0.0001141,53.2188,19.8806,89.4372,270.6751,-2.9384e-05,-7.55e-06,0.0,0 STARLINK-3863,1 52465U 22049Q   23208.88793885 -.00000755  00000-0 -29384-4 0  9999,2 52465  53.2188  19.8806 0001141  89.4372 270.6751 15.08832614 68092,6917.903,95.438,540.557,538.979,0.0
52465.0,STARLINK-3863,PAYLOAD,2023-07-28 13:12:28,15.08843144,0.0001091,53.2189,16.9073,81.5705,278.5411,-6.0902e-05,-1.257e-05,0.0,0 STARLINK-3863,1 52465U 22049Q   23209.55033541 -.00001257  00000-0 -60902-4 0  9999,2 52465  53.2189  16.9073 0001091  81.5705 278.5411 15.08843144 68195,6917.871,95.437,540.491,538.981,0.0
52465.0,STARLINK-3863,PAYLOAD,2023-07-29 17:49:24,15.08875164,8.55e-05,53.2184,11.5547,84.2399,275.8691,-0.00039419,-6.562e-05,0.0,0 STARLINK-3863,1 52465U 22049Q   23210.74264498 -.00006562  00000-0 -39419-3 0  9991,2 52465  53.2184  11.5547 0000855  84.2399 275.8691 15.08875164 68538,6917.773,95.435,540.229,539.046,0.0
52465.0,STARLINK-3863,PAYLOAD,2023-07-29 22:35:34,15.08846073,8.61e-05,53.2192,10.6604,76.7608,283.348,0.00017143,2.442e-05,0.0,0 STARLINK-3863,1 52465U 22049Q   23210.94136628  .00002442  00000-0  17143-3 0  9997,2 52465  53.2192  10.6604 0000861  76.7608 283.3480 15.08846073 68567,6917.862,95.437,540.322,539.131,0.0
52465.0,STARLINK-3863,PAYLOAD,2023-07-30 11:18:41,15.08827326,7.06e-05,53.2197,8.2858,65.2029,294.9036,-8.2836e-05,-1.605e-05,0.0,0 STARLINK-3863,1 52465U 22049Q   23211.47130838 -.00001605  00000-0 -82836-4 0  9997,2 52465  53.2197   8.2858 0000706  65.2029 294.9036 15.08827326 68648,6917.919,95.438,540.273,539.296,0.0
52465.0,STARLINK-3863,PAYLOAD,2023-07-30 17:40:12,15.08841677,9.41e-05,53.2182,7.0946,91.4304,268.6796,2.8107e-05,1.6e-06,0.0,0 STARLINK-3863,1 52465U 22049Q   23211.73625632  .00000160  00000-0  28107-4 0  9991,2 52465  53.2182   7.0946 0000941  91.4304 268.6796 15.08841677 68685,6917.875,95.437,540.391,539.089,0.0
52465.0,STARLINK-3863,PAYLOAD,2023-07-31 22:17:08,15.08850428,0.0001191,53.2196,1.7397,71.5328,288.5794,2.1631e-05,5.7e-07,0.0,0 STARLINK-3863,1 52465U 22049Q   23212.92857245  .00000057  00000-0  21631-4 0  9990,2 52465  53.2196   1.7397 0001191  71.5328 288.5794 15.08850428 68867,6917.849,95.437,540.537,538.89,0.0
52465.0,STARLINK-3863,PAYLOAD,2023-08-01 18:57:09,15.08845624,9.37e-05,53.218,357.8744,90.7119,269.398,8.6847e-05,1.095e-05,0.0,0 STARLINK-3863,1 52465U 22049Q   23213.78969648  .00001095  00000-0  86847-4 0  9999,2 52465  53.2180 357.8744 0000937  90.7119 269.3980 15.08845624 68999,6917.863,95.437,540.376,539.08,0.0
52465.0,STARLINK-3863,PAYLOAD,2023-08-02 09:15:38,15.08839607,8.64e-05,53.2179,355.1984,85.9241,274.185,8.2354e-05,1.023e-05,0.0,0 STARLINK-3863,1 52465U 22049Q   23214.38586012  .00001023  00000-0  82354-4 0  9996,2 52465  53.2179 355.1984 0000864  85.9241 274.1850 15.08839607 69080,6917.882,95.438,540.344,539.149,0.0
52465.0,STARLINK-3863,PAYLOAD,2023-08-02 18:47:55,15.0885877,9.17e-05,53.2181,353.4145,116.0539,244.0548,0.00011847,1.599e-05,0.0,0 STARLINK-3863,1 52465U 22049Q   23214.78328655  .00001599  00000-0  11847-3 0  9993,2 52465  53.2181 353.4145 0000917 116.0539 244.0548 15.08858770 69147,6917.823,95.436,540.322,539.054,0.0
52465.0,STARLINK-3863,PAYLOAD,2023-08-03 09:06:25,15.08838682,9.57e-05,53.2177,350.7381,78.9798,281.1302,0.000146,2.037e-05,0.0,0 STARLINK-3863,1 52465U 22049Q   23215.37945977  .00002037  00000-0  14600-3 0  9999,2 52465  53.2177 350.7381 0000957  78.9798 281.1302 15.08838682 69231,6917.884,95.438,540.411,539.087,0.0
52465.0,STARLINK-3863,PAYLOAD,2023-08-03 15:27:57,15.08848884,9.57e-05,53.218,349.5488,91.7831,268.3271,0.00011251,1.504e-05,0.0,0 STARLINK-3863,1 52465U 22049Q   23215.64441353  .00001504  00000-0  11251-3 0  9995,2 52465  53.2180 349.5488 0000957  91.7831 268.3271 15.08848884 69271,6917.853,95.437,540.38,539.056,0.0
52465.0,STARLINK-3863,PAYLOAD,2023-08-04 15:18:44,15.08841657,0.0001025,53.2186,345.0911,81.0683,279.0425,1.2644e-05,-8.7e-07,0.0,0 STARLINK-3863,1 52465U 22049Q   23216.63802010 -.00000087  00000-0  12644-4 0  9990,2 52465  53.2186 345.0911 0001025  81.0683 279.0425 15.08841657 69421,6917.875,95.437,540.449,539.031,0.0
52465.0,STARLINK-3863,PAYLOAD,2023-08-04 20:04:53,15.08847272,0.0001081,53.2178,344.1981,87.0025,273.1091,6.4674e-05,7.42e-06,0.0,0 STARLINK-3863,1 52465U 22049Q   23216.83673455  .00000742  00000-0  64674-4 0  9998,2 52465  53.2178 344.1981 0001081  87.0025 273.1091 15.08847272 69453,6917.858,95.437,540.471,538.975,0.0
52465.0,STARLINK-3863,PAYLOAD,2023-08-05 10:23:22,15.08841931,0.000118,53.2189,341.5165,120.0301,240.0808,-9.2122e-06,-4.34e-06,0.0,0 STARLINK-3863,1 52465U 22049Q   23217.43289897 -.00000434  00000-0 -92122-5 0  9998,2 52465  53.2189 341.5165 0001180 120.0301 240.0808 15.08841931 69540,6917.874,95.437,540.556,538.923,0.0
52465.0,STARLINK-3863,PAYLOAD,2023-08-05 13:34:08,15.08850016,0.0001187,53.2187,340.9268,90.6477,269.4651,0.00014099,1.957e-05,0.0,0 STARLINK-3863,1 52465U 22049Q   23217.56537075  .00001957  00000-0  14099-3 0  9990,2 52465  53.2187 340.9268 0001187  90.6477 269.4651 15.08850016 69565,6917.85,95.437,540.536,538.894,0.0
52465.0,STARLINK-3863,PAYLOAD,2023-08-06 00:41:51,15.08827619,0.0001183,53.2186,338.8407,93.084,267.0288,-8.8406e-06,-4.28e-06,0.0,0 STARLINK-3863,1 52465U 22049Q   23218.02906765 -.00000428  00000-0 -88406-5 0  9997,2 52465  53.2186 338.8407 0001183  93.0840 267.0288 15.08827619 69633,6917.918,95.438,540.602,538.965,0.0
52465.0,STARLINK-3863,PAYLOAD,2023-08-06 10:14:11,15.08823215,0.0001203,53.2181,337.0613,89.9379,270.1751,-7.9082e-05,-1.546e-05,0.0,0 STARLINK-3863,1 52465U 22049Q   23218.42651723 -.00001546  00000-0 -79082-4 0  9993,2 52465  53.2181 337.0613 0001203  89.9379 270.1751 15.08823215 69696,6917.932,95.439,540.629,538.964,0.0
52465.0,STARLINK-3863,PAYLOAD,2023-08-06 18:11:06,15.08830364,0.0001028,53.2184,335.5739,97.9727,262.1382,-1.4269e-05,-5.15e-06,0.0,0 STARLINK-3863,1 52465U 22049Q   23218.75771363 -.00000515  00000-0 -14269-4 0  9993,2 52465  53.2184 335.5739 0001028  97.9727 262.1382 15.08830364 69742,6917.91,95.438,540.486,539.064,0.0
52465.0,STARLINK-3863,PAYLOAD,2023-08-07 18:01:52,15.08851996,0.000107,53.2173,331.1134,87.7169,272.3946,0.00040961,6.239e-05,0.0,0 STARLINK-3863,1 52465U 22049Q   23219.75130530  .00006239  00000-0  40961-3 0  9993,2 52465  53.2173 331.1134 0001070  87.7169 272.3946 15.08851996 69894,6917.844,95.437,540.449,538.969,0.0
52465.0,STARLINK-3863,PAYLOAD,2023-08-08 00:23:25,15.088431,0.0001403,53.2182,329.9235,81.6952,278.4199,0.00024234,3.571e-05,0.0,0 STARLINK-3863,1 52465U 22049Q   23220.01626983  .00003571  00000-0  24234-3 0  9997,2 52465  53.2182 329.9235 0001403  81.6952 278.4199 15.08843100 69934,6917.871,95.437,540.706,538.765,0.0
52465.0,STARLINK-3863,PAYLOAD,2023-08-09 06:35:45,15.08838598,0.0001749,53.2165,324.2753,63.8045,296.3127,5.627e-05,6.08e-06,0.0,0 STARLINK-3863,1 52465U 22049Q   23221.27483332  .00000608  00000-0  56270-4 0  9999,2 52465  53.2165 324.2753 0001749  63.8045 296.3127 15.08838598 70124,6917.885,95.438,540.96,538.54,0.0
52465.0,STARLINK-3863,PAYLOAD,2023-08-09 16:08:03,15.08845256,8.88e-05,53.2162,322.4892,82.0028,278.1065,0.00011264,1.506e-05,0.0,0 STARLINK-3863,1 52465U 22049Q   23221.67226755  .00001506  00000-0  11264-3 0  9998,2 52465  53.2162 322.4892 0000888  82.0028 278.1065 15.08845256 70186,6917.864,95.437,540.344,539.115,0.0
52465.0,STARLINK-3863,PAYLOAD,2023-08-10 19:09:37,15.08852677,0.0001033,53.2155,317.4336,82.6579,277.4531,0.00046323,7.095e-05,0.0,0 STARLINK-3863,1 52465U 22049Q   23222.79834829  .00007095  00000-0  46323-3 0  9992,2 52465  53.2155 317.4336 0001033  82.6579 277.4531 15.08852677 70359,6917.842,95.437,540.421,538.992,0.0
52465.0,STARLINK-3863,PAYLOAD,2023-08-11 09:28:05,15.08845192,0.0001064,53.2167,314.7563,100.0643,260.0469,0.00022736,3.333e-05,0.0,0 STARLINK-3863,1 52465U 22049Q   23223.39451041  .00003333  00000-0  22736-3 0  9993,2 52465  53.2167 314.7563 0001064 100.0643 260.0469 15.08845192 70447,6917.865,95.437,540.466,538.993,0.0
52465.0,STARLINK-3863,PAYLOAD,2023-08-12 10:54:15,15.0884621,0.0001012,53.2167,309.9994,88.8722,271.2386,0.00012947,1.774e-05,0.0,0 STARLINK-3863,1 52465U 22049Q   23224.45434848  .00001774  00000-0  12947-3 0  9997,2 52465  53.2167 309.9994 0001012  88.8722 271.2386 15.08846210 70607,6917.861,95.437,540.426,539.026,0.0
52465.0,STARLINK-3863,PAYLOAD,2023-08-13 12:20:26,15.08840409,0.0001131,53.2169,305.2439,85.5422,274.5699,4.8986e-05,4.92e-06,0.0,0 STARLINK-3863,1 52465U 22049Q   23225.51419104  .00000492  00000-0  48986-4 0  9992,2 52465  53.2169 305.2439 0001131  85.5422 274.5699 15.08840409 70769,6917.879,95.438,540.527,538.962,0.0
